SIRIUS-1                
1 26390U 00035A   13057.64663242  .00000084  00000-0  00000+0 0  1394
2 26390  60.3541 244.3159 2688038 270.0367 139.0315  1.00274283 46389
SIRIUS-2                
1 26483U 00051A   13057.65046630  .00000070  00000-0  00000+0 0  7731
2 26483  64.0323 124.2437 2663252 271.1130 258.0521  1.00280987 45712
SIRIUS-3                
1 26626U 00077A   13057.86606558 -.00000105  00000-0  00000+0 0   690
2 26626  64.3803   4.0445 2691299 269.4044  99.7581  1.00279500 44856
XM-2 (ROCK)             
1 26724U 01012A   13057.63485918 -.00000030  00000-0  10000-3 0  4538
2 26724   0.0854 286.8168 0003579  26.4575 316.6277  1.00273420 43831
XM-1 (ROLL)             
1 26761U 01018A   13057.63485918 -.00000030  00000-0  10000-3 0  2959
2 26761   0.0982 262.5469 0003388 325.6763  41.6762  1.00272157 43302
XM-3 (RHYTHM)           
1 28626U 05008A   13057.09860826 -.00000213  00000-0  10000-3 0  3324
2 28626   0.0133   0.0932 0000503 287.9036 178.4770  1.00270881 29349
XM-4 (BLUES)            
1 29520U 06049A   13058.24014272 -.00000030  00000-0  10000-3 0    41
2 29520   0.0097  27.5350 0000481 294.2494 166.6142  1.00272423 23298
